[{"OBJECT_NAME":"STARLINK-35045","OBJECT_ID":"2025-194F","EPOCH":"2026-03-09T14:07:51.060288","MEAN_MOTION":15.05635797,"ECCENTRICITY":0.0003389,"INCLINATION":97.6004,"RA_OF_ASC_NODE":284.3087,"ARG_OF_PERICENTER":81.4012,"MEAN_ANOMALY":278.7598,"EPHEMERIS_TYPE":0,"CLASSIFICATION_TYPE":"U","NORAD_CAT_ID":65439,"ELEMENT_SET_NO":999,"REV_AT_EPOCH":2963,"BSTAR":0.00023039,"MEAN_MOTION_DOT":3.264e-5,"MEAN_MOTION_DDOT":0},{"OBJECT_NAME":"H-2A R\/B","OBJECT_ID":"2006-002B","EPOCH":"2026-03-09T22:32:18.942432","MEAN_MOTION":15.16426804,"ECCENTRICITY":0.00518947,"INCLINATION":98.2413,"RA_OF_ASC_NODE":215.9838,"ARG_OF_PERICENTER":240.1322,"MEAN_ANOMALY":119.4746,"EPHEMERIS_TYPE":0,"CLASSIFICATION_TYPE":"U","NORAD_CAT_ID":28932,"ELEMENT_SET_NO":999,"REV_AT_EPOCH":9447,"BSTAR":0.00057792596,"MEAN_MOTION_DOT":0.00011556,"MEAN_MOTION_DDOT":0}]
